[
  {
    "OBJECT_NAME": "STARLINK-4422",
    "OBJECT_ID": "2022-104BD",
    "EPOCH": "2025-05-17T05:37:56.377920",
    "MEAN_MOTION": 15.08838224,
    "ECCENTRICITY": 0.0001122,
    "INCLINATION": 53.2168,
    "RA_OF_ASC_NODE": 114.7467,
    "ARG_OF_PERICENTER": 98.1528,
    "MEAN_ANOMALY": 261.9591,
    "EPHEMERIS_TYPE": 0,
    "CLASSIFICATION_TYPE": "U",
    "NORAD_CAT_ID": 53639,
    "ELEMENT_SET_NO": 999,
    "REV_AT_EPOCH": 15130,
    "BSTAR": 4.571e-05,
    "MEAN_MOTION_DOT": 4.4e-06,
    "MEAN_MOTION_DDOT": 0
  },
  {
    "OBJECT_NAME": "STARLINK-4597",
    "OBJECT_ID": "2022-104BE",
    "EPOCH": "2025-05-17T21:26:29.532768",
    "MEAN_MOTION": 15.08833548,
    "ECCENTRICITY": 0.0001359,
    "INCLINATION": 53.2173,
    "RA_OF_ASC_NODE": 111.7475,
    "ARG_OF_PERICENTER": 90.8154,
    "MEAN_ANOMALY": 269.2994,
    "EPHEMERIS_TYPE": 0,
    "CLASSIFICATION_TYPE": "U",
    "NORAD_CAT_ID": 53640,
    "ELEMENT_SET_NO": 999,
    "REV_AT_EPOCH": 15055,
    "BSTAR": 7.2602e-05,
    "MEAN_MOTION_DOT": 8.68e-06,
    "MEAN_MOTION_DDOT": 0
  },
  {
    "OBJECT_NAME": "STARLINK-4588",
    "OBJECT_ID": "2022-104BF",
    "EPOCH": "2025-05-17T15:20:51.488448",
    "MEAN_MOTION": 15.08837688,
    "ECCENTRICITY": 0.0001484,
    "INCLINATION": 53.2156,
    "RA_OF_ASC_NODE": 113.0043,
    "ARG_OF_PERICENTER": 84.1576,
    "MEAN_ANOMALY": 275.9585,
    "EPHEMERIS_TYPE": 0,
    "CLASSIFICATION_TYPE": "U",
    "NORAD_CAT_ID": 53641,
    "ELEMENT_SET_NO": 999,
    "REV_AT_EPOCH": 15051,
    "BSTAR": 4.9013e-05,
    "MEAN_MOTION_DOT": 4.92e-06,
    "MEAN_MOTION_DDOT": 0
  },
  {
    "OBJECT_NAME": "STARLINK-4622",
    "OBJECT_ID": "2022-105A",
    "EPOCH": "2025-05-17T05:48:19.513728",
    "MEAN_MOTION": 15.01262953,
    "ECCENTRICITY": 0.0001063,
    "INCLINATION": 97.6565,
    "RA_OF_ASC_NODE": 19.2828,
    "ARG_OF_PERICENTER": 185.0302,
    "MEAN_ANOMALY": 175.0911,
    "EPHEMERIS_TYPE": 0,
    "CLASSIFICATION_TYPE": "U",
    "NORAD_CAT_ID": 53648,
    "ELEMENT_SET_NO": 999,
    "REV_AT_EPOCH": 14876,
    "BSTAR": -0.00020118,
    "MEAN_MOTION_DOT": -2.642e-05,
    "MEAN_MOTION_DDOT": 0
  },
  {
    "OBJECT_NAME": "STARLINK-4386",
    "OBJECT_ID": "2022-105B",
    "EPOCH": "2025-05-17T05:45:38.046816",
    "MEAN_MOTION": 15.01261607,
    "ECCENTRICITY": 0.0001425,
    "INCLINATION": 97.657,
    "RA_OF_ASC_NODE": 19.2803,
    "ARG_OF_PERICENTER": 196.0204,
    "MEAN_ANOMALY": 164.0976,
    "EPHEMERIS_TYPE": 0,
    "CLASSIFICATION_TYPE": "U",
    "NORAD_CAT_ID": 53649,
    "ELEMENT_SET_NO": 999,
    "REV_AT_EPOCH": 14875,
    "BSTAR": -3.7617e-05,
    "MEAN_MOTION_DOT": -5.42e-06,
    "MEAN_MOTION_DDOT": 0
  },
  {
    "OBJECT_NAME": "STARLINK-4380",
    "OBJECT_ID": "2022-105C",
    "EPOCH": "2025-05-17T15:18:50.578560",
    "MEAN_MOTION": 15.01261922,
    "ECCENTRICITY": 5.59e-05,
    "INCLINATION": 97.6569,
    "RA_OF_ASC_NODE": 19.6731,
    "ARG_OF_PERICENTER": 194.8887,
    "MEAN_ANOMALY": 165.2321,
    "EPHEMERIS_TYPE": 0,
    "CLASSIFICATION_TYPE": "U",
    "NORAD_CAT_ID": 53650,
    "ELEMENT_SET_NO": 999,
    "REV_AT_EPOCH": 14881,
    "BSTAR": -2.6235e-05,
    "MEAN_MOTION_DOT": -3.96e-06,
    "MEAN_MOTION_DDOT": 0
  },
  {
    "OBJECT_NAME": "STARLINK-4388",
    "OBJECT_ID": "2022-105D",
    "EPOCH": "2025-05-17T05:40:18.391872",
    "MEAN_MOTION": 15.01260952,
    "ECCENTRICITY": 0.0001125,
    "INCLINATION": 97.6569,
    "RA_OF_ASC_NODE": 19.2772,
    "ARG_OF_PERICENTER": 115.857,
    "MEAN_ANOMALY": 244.277,
    "EPHEMERIS_TYPE": 0,
    "CLASSIFICATION_TYPE": "U",
    "NORAD_CAT_ID": 53651,
    "ELEMENT_SET_NO": 999,
    "REV_AT_EPOCH": 14875,
    "BSTAR": 1.6806e-05,
    "MEAN_MOTION_DOT": 1.57e-06,
    "MEAN_MOTION_DDOT": 0
  },
  {
    "OBJECT_NAME": "STARLINK-4374",
    "OBJECT_ID": "2022-105E",
    "EPOCH": "2025-05-17T05:37:38.286624",
    "MEAN_MOTION": 15.01259151,
    "ECCENTRICITY": 0.0001337,
    "INCLINATION": 97.6569,
    "RA_OF_ASC_NODE": 19.2756,
    "ARG_OF_PERICENTER": 110.8305,
    "MEAN_ANOMALY": 249.3062,
    "EPHEMERIS_TYPE": 0,
    "CLASSIFICATION_TYPE": "U",
    "NORAD_CAT_ID": 53652,
    "ELEMENT_SET_NO": 999,
    "REV_AT_EPOCH": 14903,
    "BSTAR": 6.4893e-05,
    "MEAN_MOTION_DOT": 7.75e-06,
    "MEAN_MOTION_DDOT": 0
  },
  {
    "OBJECT_NAME": "STARLINK-4390",
    "OBJECT_ID": "2022-105F",
    "EPOCH": "2025-05-17T22:04:06.134880",
    "MEAN_MOTION": 15.01262037,
    "ECCENTRICITY": 0.0001757,
    "INCLINATION": 97.656,
    "RA_OF_ASC_NODE": 19.9058,
    "ARG_OF_PERICENTER": 89.4019,
    "MEAN_ANOMALY": 270.7406,
    "EPHEMERIS_TYPE": 0,
    "CLASSIFICATION_TYPE": "U",
    "NORAD_CAT_ID": 53653,
    "ELEMENT_SET_NO": 999,
    "REV_AT_EPOCH": 14913,
    "BSTAR": 5.5786e-05,
    "MEAN_MOTION_DOT": 6.58e-06,
    "MEAN_MOTION_DDOT": 0
  },
  {
    "OBJECT_NAME": "STARLINK-4420",
    "OBJECT_ID": "2022-105G",
    "EPOCH": "2025-05-17T15:05:30.800544",
    "MEAN_MOTION": 15.01262149,
    "ECCENTRICITY": 8.63e-05,
    "INCLINATION": 97.658,
    "RA_OF_ASC_NODE": 19.6672,
    "ARG_OF_PERICENTER": 130.6698,
    "MEAN_ANOMALY": 229.4602,
    "EPHEMERIS_TYPE": 0,
    "CLASSIFICATION_TYPE": "U",
    "NORAD_CAT_ID": 53654,
    "ELEMENT_SET_NO": 999,
    "REV_AT_EPOCH": 14881,
    "BSTAR": 8.791e-05,
    "MEAN_MOTION_DOT": 1.07e-05,
    "MEAN_MOTION_DDOT": 0
  },
  {
    "OBJECT_NAME": "STARLINK-4470",
    "OBJECT_ID": "2022-105H",
    "EPOCH": "2025-05-17T05:34:58.352448",
    "MEAN_MOTION": 15.01254653,
    "ECCENTRICITY": 0.0001427,
    "INCLINATION": 97.657,
    "RA_OF_ASC_NODE": 19.2741,
    "ARG_OF_PERICENTER": 146.6775,
    "MEAN_ANOMALY": 213.4539,
    "EPHEMERIS_TYPE": 0,
    "CLASSIFICATION_TYPE": "U",
    "NORAD_CAT_ID": 53655,
    "ELEMENT_SET_NO": 999,
    "REV_AT_EPOCH": 14875,
    "BSTAR": 1.218e-05,
    "MEAN_MOTION_DOT": 9.7e-07,
    "MEAN_MOTION_DDOT": 0
  },
  {
    "OBJECT_NAME": "STARLINK-4466",
    "OBJECT_ID": "2022-105J",
    "EPOCH": "2025-05-17T10:09:34.857504",
    "MEAN_MOTION": 15.01263005,
    "ECCENTRICITY": 0.0001931,
    "INCLINATION": 97.6595,
    "RA_OF_ASC_NODE": 19.4756,
    "ARG_OF_PERICENTER": 90.1994,
    "MEAN_ANOMALY": 269.9451,
    "EPHEMERIS_TYPE": 0,
    "CLASSIFICATION_TYPE": "U",
    "NORAD_CAT_ID": 53656,
    "ELEMENT_SET_NO": 999,
    "REV_AT_EPOCH": 14878,
    "BSTAR": 8.1354e-05,
    "MEAN_MOTION_DOT": 9.86e-06,
    "MEAN_MOTION_DDOT": 0
  },
  {
    "OBJECT_NAME": "STARLINK-4469",
    "OBJECT_ID": "2022-105K",
    "EPOCH": "2025-05-17T05:32:18.392352",
    "MEAN_MOTION": 15.01262666,
    "ECCENTRICITY": 7.99e-05,
    "INCLINATION": 97.6572,
    "RA_OF_ASC_NODE": 19.2728,
    "ARG_OF_PERICENTER": 99.1542,
    "MEAN_ANOMALY": 260.9772,
    "EPHEMERIS_TYPE": 0,
    "CLASSIFICATION_TYPE": "U",
    "NORAD_CAT_ID": 53657,
    "ELEMENT_SET_NO": 999,
    "REV_AT_EPOCH": 14875,
    "BSTAR": 2.6056e-05,
    "MEAN_MOTION_DOT": 2.76e-06,
    "MEAN_MOTION_DDOT": 0
  },
  {
    "OBJECT_NAME": "STARLINK-4452",
    "OBJECT_ID": "2022-105L",
    "EPOCH": "2025-05-17T10:12:14.910912",
    "MEAN_MOTION": 15.01262748,
    "ECCENTRICITY": 0.0001494,
    "INCLINATION": 97.66,
    "RA_OF_ASC_NODE": 19.4706,
    "ARG_OF_PERICENTER": 93.1873,
    "MEAN_ANOMALY": 266.9522,
    "EPHEMERIS_TYPE": 0,
    "CLASSIFICATION_TYPE": "U",
    "NORAD_CAT_ID": 53658,
    "ELEMENT_SET_NO": 999,
    "REV_AT_EPOCH": 14878,
    "BSTAR": 4.673e-05,
    "MEAN_MOTION_DOT": 5.41e-06,
    "MEAN_MOTION_DDOT": 0
  },
  {
    "OBJECT_NAME": "STARLINK-4463",
    "OBJECT_ID": "2022-105M",
    "EPOCH": "2025-05-17T21:27:07.328448",
    "MEAN_MOTION": 15.01270557,
    "ECCENTRICITY": 0.000118,
    "INCLINATION": 97.6588,
    "RA_OF_ASC_NODE": 19.9296,
    "ARG_OF_PERICENTER": 96.865,
    "MEAN_ANOMALY": 263.2708,
    "EPHEMERIS_TYPE": 0,
    "CLASSIFICATION_TYPE": "U",
    "NORAD_CAT_ID": 53659,
    "ELEMENT_SET_NO": 999,
    "REV_AT_EPOCH": 14913,
    "BSTAR": 9.632e-06,
    "MEAN_MOTION_DOT": 6.5e-07,
    "MEAN_MOTION_DDOT": 0
  },
  {
    "OBJECT_NAME": "STARLINK-4473",
    "OBJECT_ID": "2022-105N",
    "EPOCH": "2025-05-17T10:04:15.117888",
    "MEAN_MOTION": 15.01260399,
    "ECCENTRICITY": 0.0002448,
    "INCLINATION": 97.6586,
    "RA_OF_ASC_NODE": 19.471,
    "ARG_OF_PERICENTER": 85.6272,
    "MEAN_ANOMALY": 274.5232,
    "EPHEMERIS_TYPE": 0,
    "CLASSIFICATION_TYPE": "U",
    "NORAD_CAT_ID": 53660,
    "ELEMENT_SET_NO": 999,
    "REV_AT_EPOCH": 14878,
    "BSTAR": 6.9712e-05,
    "MEAN_MOTION_DOT": 8.36e-06,
    "MEAN_MOTION_DDOT": 0
  },
  {
    "OBJECT_NAME": "STARLINK-4472",
    "OBJECT_ID": "2022-105P",
    "EPOCH": "2025-05-17T14:53:50.422272",
    "MEAN_MOTION": 15.02238845,
    "ECCENTRICITY": 0.000391,
    "INCLINATION": 97.6587,
    "RA_OF_ASC_NODE": 19.6731,
    "ARG_OF_PERICENTER": 250.8631,
    "MEAN_ANOMALY": 109.217,
    "EPHEMERIS_TYPE": 0,
    "CLASSIFICATION_TYPE": "U",
    "NORAD_CAT_ID": 53661,
    "ELEMENT_SET_NO": 999,
    "REV_AT_EPOCH": 14909,
    "BSTAR": 0.0096903,
    "MEAN_MOTION_DOT": 0.00130034,
    "MEAN_MOTION_DDOT": 0
  },
  {
    "OBJECT_NAME": "STARLINK-4357",
    "OBJECT_ID": "2022-105Q",
    "EPOCH": "2025-05-17T14:47:12.901056",
    "MEAN_MOTION": 15.01267614,
    "ECCENTRICITY": 0.0002538,
    "INCLINATION": 97.6578,
    "RA_OF_ASC_NODE": 19.6662,
    "ARG_OF_PERICENTER": 83.5317,
    "MEAN_ANOMALY": 276.6196,
    "EPHEMERIS_TYPE": 0,
    "CLASSIFICATION_TYPE": "U",
    "NORAD_CAT_ID": 53662,
    "ELEMENT_SET_NO": 999,
    "REV_AT_EPOCH": 14881,
    "BSTAR": -9.0261e-06,
    "MEAN_MOTION_DOT": -1.75e-06,
    "MEAN_MOTION_DDOT": 0
  },
  {
    "OBJECT_NAME": "STARLINK-4457",
    "OBJECT_ID": "2022-105R",
    "EPOCH": "2025-05-17T14:54:51.680736",
    "MEAN_MOTION": 15.01273755,
    "ECCENTRICITY": 0.0002488,
    "INCLINATION": 97.6593,
    "RA_OF_ASC_NODE": 19.6686,
    "ARG_OF_PERICENTER": 80.865,
    "MEAN_ANOMALY": 279.2856,
    "EPHEMERIS_TYPE": 0,
    "CLASSIFICATION_TYPE": "U",
    "NORAD_CAT_ID": 53663,
    "ELEMENT_SET_NO": 999,
    "REV_AT_EPOCH": 14881,
    "BSTAR": 0.00011111,
    "MEAN_MOTION_DOT": 1.369e-05,
    "MEAN_MOTION_DDOT": 0
  }
]